<?xml version="1.0" encoding="UTF-8"?>
<kml xmlns="http://www.opengis.net/kml/2.2">
<Document>
	<name>comp20.kml</name>
	<Placemark>
		<name>comp20</name>
		<LineString>
			<tessellate>1</tessellate>
			<coordinates>
				-49.8416849869176,-26.721725612204374,0 -51.241175803607945,-27.09592208901395,0 -51.34354134824071,-28.52459981432411,0 -50.001552647388664,-28.626641823403,0 -49.8416849869176,-26.721725612204374,0
			</coordinates>
		</LineString>
	</Placemark>
</Document>
</kml>
