<?xml version="1.0" encoding="UTF-8"?>
<kml xmlns="http://www.opengis.net/kml/2.2">
<Document>
	<name>comp21.kml</name>
	<Placemark>
		<name>comp21</name>
		<LineString>
			<tessellate>1</tessellate>
			<coordinates>
				-67.6401969231776,-7.66955626704232,0 -63.04459931969345,-11.683373821713086,0 -59.843143430143364,-13.31611409365616,0 -56.17391652056554,-13.758315249463635,0 -52.174811272063245,-13.62225331469732,0 -49.03254969852222,-11.411250661443031,0 -49.045697120678106,-2.057013970932301,0 -50.20416062300267,2.7051431141298172,0 -54.005050368297084,6.645828156656937,0 -58.48584988712551,7.632274902997566,0 -60.95898420394249,9.979336182508106,0 -63.191676965302136,10.931769208336034,0 -67.82903353702038,10.149415103617045,0 -69.12064731561695,7.122043855463186,0 -70.99071681865543,2.8361024491888593,0 -70.8945043324448,-0.837561597500167,0 -70.33959007012605,-3.5928098250214076,0 -69.05752911922326,-6.348057751902897,0 -67.6401969231776,-7.66955626704232,0
			</coordinates>
		</LineString>
	</Placemark>
</Document>
</kml>
