<?xml version="1.0" encoding="UTF-8"?>
<kml xmlns="http://www.opengis.net/kml/2.2">
<Document>
	<name>comp4.kml</name>
	<Placemark>
		<name>comp4</name>
		<LineString>
			<tessellate>1</tessellate>
			<coordinates>
				122.49988887319006,-18.375257888527585,0 125.4515761325491,-19.403583862908338,0 128.41855088876412,-20.817495690810194,0 130.30784287543182,-21.074572048900233,0 132.30243250165313,-21.417340578199568,0 136.01233862116416,-21.074572048900233,0 140.9778108286277,-20.26049608171691,0 142.72377094588245,-19.746357059498166,0 142.82052237403602,-17.353351890583724,0 141.92756656602364,-14.225502207480465,0 141.28464222366492,-10.197881399216627,0 140.74932261917482,-8.698235742646425,0 141.8541401811322,-6.427344994455924,0 142.60980688797832,-5.613251850281794,0 139.74542001482047,-4.3706890634536855,0 137.00994668678996,-4.413536083807709,0 134.44175298441203,-6.855815054070607,0 131.98714623063302,-9.169552413072319,0 129.19167032653684,-11.311903092447027,0 126.0508761572057,-13.025783485311571,0 123.39599762663853,-15.725150987882374,0 122.17229912928121,-16.924878425210498,0 122.49988887319006,-18.375257888527585,0
			</coordinates>
		</LineString>
	</Placemark>
</Document>
</kml>
