<?xml version="1.0" encoding="UTF-8"?>
<kml xmlns="http://www.opengis.net/kml/2.2">
<Document>
	<name>comp16.kml</name>
	<Placemark>
		<name>comp16</name>
		<LineString>
			<tessellate>1</tessellate>
			<coordinates>
				27.13353139032333,68.91099220634669,0 31.701466884186672,62.795195223462095,0 33.991537860281625,60.92385380882541,0 40.64356729149452,61.973153397471435,0 42.388518865017225,64.15775629799813,0 40.92582389215926,67.055669160254,0 34.28878389229782,71.51417894505134,0 29.65567689240611,72.22737701970244,0 25.845575908325458,70.93543654041518,0 27.13353139032333,68.91099220634669,0
			</coordinates>
		</LineString>
	</Placemark>
</Document>
</kml>
