<?xml version="1.0" encoding="UTF-8"?>
<kml xmlns="http://www.opengis.net/kml/2.2">
<Document>
	<name>comp17.kml</name>
	<Placemark>
		<name>comp17</name>
		<LineString>
			<tessellate>1</tessellate>
			<coordinates>
				42.605739048771525,57.3679458568338,0 46.168089643469834,55.73198062007436,0 47.07962660003473,54.27813670779056,0 46.95960851512095,52.55900088937818,0 47.06584268525049,51.073100189038136,0 48.402017782905595,50.30643682763296,0 50.205703627219215,50.08783880431879,0 52.78426461868031,51.18282847341512,0 54.38688242957425,54.05547011078207,0 54.00666215665764,55.956699042791314,0 52.22169978186777,60.460109832924424,0 50.09163348740368,63.979142872963855,0 46.3184822939556,64.15775629799813,0 42.952796635622256,61.62245962219268,0 41.78621000734662,58.56294408435861,0 42.605739048771525,57.3679458568338,0
			</coordinates>
		</LineString>
	</Placemark>
</Document>
</kml>
