<?xml version="1.0" encoding="UTF-8"?>
<kml xmlns="http://www.opengis.net/kml/2.2">
<Document>
	<name>comp22.kml</name>
	<Placemark>
		<name>comp22</name>
		<LineString>
			<tessellate>1</tessellate>
			<coordinates>
				-106.09417570653038,57.907071225338676,0 -111.27533513135653,57.79720817560957,0 -113.79509797961835,58.42078715420106,0 -115.04465135586781,59.15766838797018,0 -113.17578237785911,61.05374689825806,0 -110.33553893077732,63.16696031320351,0 -107.4709506622235,64.3525164317663,0 -106.16196190945246,65.35635837211738,0 -106.93572273118623,67.4325894968638,0 -106.93523228417331,68.58791405850259,0 -103.20411193584556,68.86904593168124,0 -100.08912512202188,69.96226893945376,0 -96.97979245684346,71.07047407292191,0 -92.41529932380783,72.18817010399881,0 -87.44578073789475,72.27206787718339,0 -86.04729660488974,73.58425784174584,0 -85.46396601832689,74.65911669009229,0 -85.447508256481,76.10305790836262,0 -84.79303535258141,81.09449248070015,0 -80.81632353069905,82.07209902123468,0 -77.28609594806254,82.63975641082101,0 -72.85279194510441,83.28822157467206,0 -67.53265675825524,83.5310657784096,0 -46.696295052719776,83.34855910805202,0 -26.495465217193807,83.34855910805202,0 -22.132417634598475,82.41036645245647,0 -20.690110082247887,81.79520187951815,0 -20.25433648635669,79.76356199514126,0 -21.62786151439262,76.22278640523749,0 -24.664153633456948,73.57145130244609,0 -30.067561010066704,70.27060271180649,0 -35.11157575472504,67.69225875270955,0 -37.875248184966345,66.54789666841256,0 -41.25150384887773,66.74423970274493,0 -46.7618046840055,67.89097011015994,0 -52.052567298532104,67.97057544577974,0 -65.76616968916397,68.32966956988093,0 -68.3198870268057,67.57323663681814,0 -74.93277037397861,67.05920582643027,0 -81.84515826637357,66.62638732923395,0 -87.46395792413968,64.02845892750052,0 -90.77629909943514,64.12432476913558,0 -94.88570142060249,64.65301484503512,0 -96.55233305547121,64.74940398771918,0 -98.05297452633306,63.550299938113035,0 -99.58798814501982,61.89138430965229,0 -100.62625250737811,61.14014839618176,0 -101.97183416796386,59.835409726299034,0 -103.43685959845081,58.77247598073325,0 -104.77453225979133,57.90001938424218,0 -106.09417570653038,57.907071225338676,0
			</coordinates>
		</LineString>
	</Placemark>
</Document>
</kml>
