<?xml version="1.0" encoding="UTF-8"?>
<kml xmlns="http://www.opengis.net/kml/2.2">
<Document>
	<name>comp6.kml</name>
	<Placemark>
		<name>comp6</name>
		<LineString>
			<tessellate>1</tessellate>
			<coordinates>
				13.31560386384076,-20.097647429817172,0 15.106912968260591,-19.286429515425716,0 24.393450812984934,-13.39421546499234,0 31.178096088266486,-8.313268367202083,0 33.206234007780296,-6.306508239042381,0 33.66209422057163,-4.5132333409411265,0 34.32144884130643,-2.2502902764807655,0 34.43264126131201,-0.6705001428949884,0 33.62576098781939,1.1654720994758794,0 32.48745043814885,4.489436381512409,0 31.661265073258058,6.026529090264991,0 30.07326484061109,7.862501287312456,0 26.8893580620918,8.97262346916813,0 22.404171853870444,10.168141007335276,0 19.134885802868443,8.97262346916813,0 15.703054964166904,6.923166755599113,0 12.52327632965627,4.233254110268803,0 9.356620303106304,1.3725526949897406,0 8.749032111535247,-0.6769046972434832,0 9.84608949820327,-2.9398473837924612,0 12.700811685735918,-6.654489049088118,0 12.988862324116443,-7.209550426802609,0 13.138559659087651,-10.155645484126229,0 16.4673104808405,-9.899461542575319,0 17.780564356510748,-10.75340371708443,0 17.892922305972316,-12.50398153516382,0 15.896228960628203,-14.596140402357904,0 12.876865562948277,-14.724232080801173,0 12.028378984080833,-15.279290923813718,0 11.466639175037534,-15.913347743220157,0 11.504958059084377,-18.048216122438614,0 13.31560386384076,-20.097647429817172,0
			</coordinates>
		</LineString>
	</Placemark>
</Document>
</kml>
