<?xml version="1.0" encoding="UTF-8"?>
<kml xmlns="http://www.opengis.net/kml/2.2">
<Document>
	<name>comp8.kml</name>
	<Placemark>
		<name>comp8</name>
		<LineString>
			<tessellate>1</tessellate>
			<coordinates>
				20.274129201326314,32.96548055899424,0 23.427667346591733,33.00817601446693,0 25.080313614976347,31.51407065774709,0 28.096039957541127,31.172600674559558,0 30.146644124747493,30.959183352849454,0 31.455592081994805,31.34333503548976,0 32.46728854835222,30.532345232963763,0 32.38082816912049,28.397838924497766,0 31.770719006397254,25.57967683092501,0 30.602260907134767,22.932367347178175,0 28.459459867069857,21.52338483606075,0 24.583566931486,18.70543800203548,0 22.99459422035411,17.979587006864953,0 20.17280513788966,18.278467248060306,0 19.014656432973283,19.30319465087573,0 19.113657959703723,22.29191757002114,0 21.96810207642119,25.15267360243782,0 22.5463879348029,25.87858137149525,0 22.584526793414906,27.287693428732332,0 20.425180869639455,30.318921500549635,0 19.42586340625376,31.172600674559558,0 20.274129201326314,32.96548055899424,0
			</coordinates>
		</LineString>
	</Placemark>
</Document>
</kml>
