<?xml version="1.0" encoding="UTF-8"?>
<kml xmlns="http://www.opengis.net/kml/2.2">
<Document>
	<name>comp23.kml</name>
	<Placemark>
		<name>comp23</name>
		<LineString>
			<tessellate>1</tessellate>
			<coordinates>
				-103.47642011550184,53.165266725338796,0 -101.12286155284913,54.5522945078869,0 -97.20664331988283,56.857112814343374,0 -94.05346643912212,59.05594836771329,0 -92.67945475778599,61.00677816674107,0 -90.70164617986623,62.70148806004421,0 -88.44761033753565,63.50974517879843,0 -90.38657329280005,64.70842856420975,0 -93.73971743083135,65.19145797844318,0 -96.73537876166058,65.2398753331651,0 -99.45172962574748,64.51580167422247,0 -100.99261683878264,62.22849689315552,0 -103.33874243143515,60.21392229476717,0 -105.73861359910806,58.549299212833496,0 -107.10110057234597,57.31270076410774,0 -107.97727575048272,56.13075073721427,0 -107.14597936868914,54.95687461740983,0 -105.50887218005724,53.79044619514085,0 -104.35731977240688,53.432960869647104,0 -103.47642011550184,53.165266725338796,0
			</coordinates>
		</LineString>
	</Placemark>
</Document>
</kml>
