<?xml version="1.0" encoding="UTF-8"?>
<kml xmlns="http://www.opengis.net/kml/2.2">
<Document>
	<name>comp19.kml</name>
	<Placemark>
		<name>comp19</name>
		<LineString>
			<tessellate>1</tessellate>
			<coordinates>
				-53.135674076339455,-31.50710549234558,0 -56.36591136928502,-30.214913766517434,0 -59.55386234461419,-31.84716152133323,0 -61.77945923132046,-35.99878234186343,0 -60.16037814863532,-37.97661446793121,0 -59.3898331798577,-38.65965660227424,0 -56.607246233807544,-37.08950466176536,0 -53.68147204229288,-33.61580937457592,0 -53.135674076339455,-31.50710549234558,0
			</coordinates>
		</LineString>
	</Placemark>
</Document>
</kml>
