<?xml version="1.0" encoding="UTF-8"?>
<kml xmlns="http://www.opengis.net/kml/2.2">
<Document>
	<name>comp5.kml</name>
	<Placemark>
		<name>comp5</name>
		<LineString>
			<tessellate>1</tessellate>
			<coordinates>
				18.941945281450568,-30.880532336998307,0 21.893355001203243,-32.45988969556102,0 25.785542074217464,-31.350051080036327,0 31.58205456925325,-28.831507587513162,0 32.55323142963541,-26.013402300460356,0 32.11749796573466,-19.736879730897694,0 33.601213279792496,-14.228944502262083,0 28.76700151504955,-13.71657867775707,0 25.486563929472982,-14.44243044772217,0 22.17717152512007,-16.918872240081775,0 16.830838634933542,-21.999761081661017,0 16.078752363228574,-23.109873387770243,0 16.570706031598903,-25.372893239238124,0 17.67696291759258,-27.806797558330757,0 18.086192467360423,-29.98416335241734,0 18.941945281450568,-30.880532336998307,0
			</coordinates>
		</LineString>
	</Placemark>
</Document>
</kml>
