<?xml version="1.0" encoding="UTF-8"?>
<kml xmlns="http://www.opengis.net/kml/2.2">
<Document>
	<name>comp12.kml</name>
	<Placemark>
		<name>comp12</name>
		<LineString>
			<tessellate>1</tessellate>
			<coordinates>
				93.28675632402167,40.07889084070288,0 95.86311388041084,37.33104194831065,0 101.48686379733473,35.32585891652782,0 109.58707697790499,34.05739381592669,0 114.22641031491467,33.52354863889725,0 120.88793078153705,36.127515894649264,0 123.58558371476883,37.264141383937705,0 126.19534064954846,37.33104194831065,0 128.48985361823603,38.46915051823603,0 130.9656739418438,42.366953295204986,0 131.25742014650697,43.041884766237764,0 112.89913584601116,42.56933144547605,0 98.00341199912476,42.02984371923444,0 93.604020473457,41.28899604398345,0 93.28675632402167,40.07889084070288,0
			</coordinates>
		</LineString>
	</Placemark>
</Document>
</kml>
