<?xml version="1.0" encoding="UTF-8"?>
<kml xmlns="http://www.opengis.net/kml/2.2">
<Document>
	<name>comp9.kml</name>
	<Placemark>
		<name>comp9</name>
		<LineString>
			<tessellate>1</tessellate>
			<coordinates>
				46.61369111550974,17.174742951363065,0 49.507055119608246,16.961256049230215,0 53.48378987481882,17.473624359337606,0 54.79246048389105,16.961256049230215,0 57.66594918723616,20.035424200429468,0 59.14511427692691,22.767984555974,0 59.10359573521855,26.6535984701217,0 58.22971123549987,29.727720158685948,0 57.14465394148103,31.136319713990755,0 51.26126157160296,34.89388464502632,0 49.49532159023785,35.492251484310756,0 42.92538775028369,35.53499966054869,0 40.17488578495878,33.39886585562568,0 39.78918895251513,31.00826934289396,0 42.6461039735308,27.63569055508207,0 44.08986541352725,25.97038794536383,0 44.60551637785286,24.902882489939635,0 44.77741147866173,23.152256883352297,0 44.6992113365299,21.700573883449078,0 44.897727206032435,18.92532740747896,0 45.35186185894689,17.857899904217035,0 46.61369111550974,17.174742951363065,0
			</coordinates>
		</LineString>
	</Placemark>
</Document>
</kml>
