<?xml version="1.0" encoding="UTF-8"?>
<kml xmlns="http://www.opengis.net/kml/2.2">
<Document>
	<name>comp7.kml</name>
	<Placemark>
		<name>comp7</name>
		<LineString>
			<tessellate>1</tessellate>
			<coordinates>
				-7.313932862003882,3.6525743364445087,0 -4.280600310061089,4.976182730644118,0 -1.4047869315920307,4.677303388044636,0 1.1062992765170543,5.317758353961877,0 6.164155413914261,12.704344087119368,0 6.8212840103943275,13.38749731548238,0 6.478802292875401,16.205511645477824,0 2.6434350747394766,18.938136486940383,0 2.8285924603113215,23.122368923299785,0 5.272903654996896,26.794509663205712,0 5.3785821748425455,28.325255453878906,0 3.144292999178218,31.307053903656172,0 2.2173526274014903,31.81926608765348,0 -1.8513775198347688,31.733895840995135,0 -5.0056897919462155,30.325324278980812,0 -10.037599113261493,27.977275313312518,0 -13.778245259726924,24.689385886012477,0 -16.995006990888264,21.444397002241327,0 -16.963196757569104,15.893820307138627,0 -17.79238335363243,14.698300156093481,0 -17.269372016001878,13.161202726971144,0 -16.055653849978505,11.28893761670499,0 -14.2850673824382,9.58105551889478,0 -12.351209672994402,6.63496180121279,0 -10.113639987633428,5.140565677993291,0 -7.881425759206944,3.9023520266316436,0 -7.313932862003882,3.6525743364445087,0
			</coordinates>
		</LineString>
	</Placemark>
</Document>
</kml>
