<?xml version="1.0" encoding="UTF-8"?>
<kml xmlns="http://www.opengis.net/kml/2.2">
<Document>
	<name>comp15.kml</name>
	<Placemark>
		<name>comp15</name>
		<LineString>
			<tessellate>1</tessellate>
			<coordinates>
				21.699894333855937,64.69526161233266,0 24.80258085978513,60.05559737177095,0 27.52504201864455,58.620078465026964,0 30.97981800437554,58.96333770287788,0 32.270978681246184,59.594705613653005,0 31.439723042983225,62.97205157932747,0 27.54930432617885,67.42375150539996,0 24.33448897833928,68.8485221729215,0 21.366862548557556,68.91099220634669,0 20.220026535765108,66.56705849795769,0 21.699894333855937,64.69526161233266,0
			</coordinates>
		</LineString>
	</Placemark>
</Document>
</kml>
