<?xml version="1.0" encoding="UTF-8"?>
<kml xmlns="http://www.opengis.net/kml/2.2">
<Document>
	<name>comp13.kml</name>
	<Placemark>
		<name>comp13</name>
		<LineString>
			<tessellate>1</tessellate>
			<coordinates>
				93.14489747384505,40.213220477088086,0 91.18801581893472,39.5418846223361,0 80.4928552541405,39.139412916409576,0 78.35222088738395,39.608987462518044,0 74.07858096577857,41.49094008906437,0 71.23156445503062,42.16465978262692,0 70.08543623641098,46.500848320827224,0 71.12310692040872,47.86643914801225,0 75.47932712815691,47.524480338229196,0 80.01435747613485,46.43272022670764,0 83.4764643791376,45.4123862734785,0 86.90608811017215,44.25931124106619,0 89.70912461250185,43.31213324512695,0 92.21505452288795,42.232081642217885,0 93.39565238210162,41.4236167954054,0 93.14489747384505,40.213220477088086,0
			</coordinates>
		</LineString>
	</Placemark>
</Document>
</kml>
