<?xml version="1.0" encoding="UTF-8"?>
<kml xmlns="http://www.opengis.net/kml/2.2">
<Document>
	<name>comp11.kml</name>
	<Placemark>
		<name>comp11</name>
		<LineString>
			<tessellate>1</tessellate>
			<coordinates>
				91.82936201314571,30.465296652751793,0 94.13498074779285,27.663624112434746,0 97.89805376078833,26.529412769523166,0 102.79921118089274,26.062374053885286,0 107.89115603656356,25.86221434849149,0 111.3945455631583,27.663624112434746,0 116.64660606541453,28.530908898942553,0 120.39213724215435,28.931170392823923,0 122.42645019256716,29.464822962510713,0 122.69233124859589,31.13223079948662,0 117.18164226124286,31.0655378951334,0 114.40713677689696,31.0655378951334,0 109.39909588088192,31.79917002162805,0 105.10176593885132,32.866395112182225,0 99.18127971058512,34.60138157894521,0 95.04109193722415,34.801661087127805,0 91.87362687416005,33.066528926435836,0 91.00650193373754,30.798765889852053,0 91.82936201314571,30.465296652751793,0
			</coordinates>
		</LineString>
	</Placemark>
</Document>
</kml>
