<?xml version="1.0" encoding="UTF-8"?>
<kml xmlns="http://www.opengis.net/kml/2.2">
<Document>
	<name>comp1.kml</name>
	<Placemark>
		<name>comp1</name>
		<LineString>
			<tessellate>1</tessellate>
			<coordinates>
				144.82650412941496,-27.75892493854844,0 138.4683683978112,-23.68821435987643,0 135.2814613097314,-23.81675759030002,0 132.1440984157234,-24.58802815982598,0 129.9440669780852,-26.216331688138226,0 128.21553069289112,-29.00145734654552,0 126.5649027918595,-32.08566651654103,0 126.71165430458834,-32.68541510209862,0 129.58557213865177,-32.042829855188046,0 132.3032692961432,-32.08566651654103,0 133.79140620663333,-32.94247538533245,0 135.29523661270906,-34.270976783247846,0 136.70509638152774,-35.80201169166472,0 138.46125759245382,-37.00403361119474,0 140.49511559566386,-36.8322345149061,0 142.02688347166657,-35.5445919144561,0 144.10429242904033,-34.04379497789318,0 145.33091207825544,-31.68729499279073,0 145.5593286262827,-28.817229519442787,0 144.82650412941496,-27.75892493854844,0
			</coordinates>
		</LineString>
	</Placemark>
</Document>
</kml>
