<?xml version="1.0" encoding="UTF-8"?>
<kml xmlns="http://www.opengis.net/kml/2.2">
<Document>
	<name>comp10.kml</name>
	<Placemark>
		<name>comp10</name>
		<LineString>
			<tessellate>1</tessellate>
			<coordinates>
				77.51145677535867,7.802638094904608,0 79.88753447195533,10.404488388958898,0 80.57131549593419,15.741623307831636,0 85.99085663634308,18.94391994796179,0 88.04858625009308,20.678448427133652,0 89.28975471485866,26.215829838797436,0 88.20653471351015,27.750355226863288,0 83.91656491941592,28.41749844786472,0 76.5672042895326,32.8196988411424,0 72.18531449805803,33.08654295631705,0 69.96561663243924,31.952571468367253,0 70.63018994124576,27.48348872715894,0 71.8046484530283,22.61312164423979,0 72.98484676673162,17.60963465880569,0 74.25019624297121,13.873623411499292,0 77.51145677535867,7.802638094904608,0
			</coordinates>
		</LineString>
	</Placemark>
</Document>
</kml>
