<?xml version="1.0" encoding="UTF-8"?>
<kml xmlns="http://www.opengis.net/kml/2.2">
<Document>
	<name>comp2.kml</name>
	<Placemark>
		<name>comp2</name>
		<LineString>
			<tessellate>1</tessellate>
			<coordinates>
				126.70986790099518,-32.122077902302664,0 130.30521076533608,-26.42415744872319,0 131.9219293343556,-24.838695756687315,0 131.79484947337036,-23.76748262813195,0 127.85717617246095,-20.725376630397356,0 123.71477879511275,-18.840147994024203,0 122.26726349823696,-18.454524976011925,0 118.67207408710101,-20.168376707832188,0 115.53022903572831,-21.7108364798523,0 114.19313951590232,-25.052941060154872,0 113.42622335427679,-26.724110927814646,0 115.10367385438444,-29.809009663435646,0 115.99942290752955,-32.421945149412274,0 117.38192157204988,-33.62164022414444,0 119.90954836844028,-33.96450124066812,0 123.00103316325206,-33.66449523654572,0 125.0680016597036,-32.9360486596604,0 126.70986790099518,-32.122077902302664,0
			</coordinates>
		</LineString>
	</Placemark>
</Document>
</kml>
