<?xml version="1.0" encoding="UTF-8"?>
<kml xmlns="http://www.opengis.net/kml/2.2">
<Document>
	<name>comp18.kml</name>
	<Placemark>
		<name>comp18</name>
		<LineString>
			<tessellate>1</tessellate>
			<coordinates>
				39.28440632876592,57.878977295525864,0 41.19688222252038,57.311264811099235,0 46.57884140758259,53.88863896535005,0 45.16666942134639,49.81486464782927,0 39.88146821966124,46.128961423233285,0 37.680617552658866,45.4829433938899,0 31.21139357888705,45.751977643752056,0 26.96158238746425,48.128752226171585,0 24.203060893570918,49.48768409094017,0 24.294423630410833,50.36111693093361,0 31.7379876840077,55.39543926922443,0 35.94348832568517,56.91504768730831,0 39.28440632876592,57.878977295525864,0
			</coordinates>
		</LineString>
	</Placemark>
</Document>
</kml>
