<?xml version="1.0" encoding="UTF-8"?>
<kml xmlns="http://www.opengis.net/kml/2.2">
<Document>
	<name>comp14.kml</name>
	<Placemark>
		<name>comp14</name>
		<LineString>
			<tessellate>1</tessellate>
			<coordinates>
				78.92505802320551,72.19100885043055,0 83.81246872762583,65.55702829563876,0 83.51627990298199,58.39566030768808,0 85.45558492378031,55.36819547654399,0 99.20653067169269,51.38974040871001,0 103.93736360838795,51.72300806294746,0 116.18730009982369,55.36819547654399,0 127.42823245309765,55.87847730849633,0 130.74585419812254,54.46459144899262,0 135.08590025373783,54.46459144899262,0 139.63540501558583,56.8464644787537,0 146.6121033095014,63.08474970399646,0 147.8177014829497,65.43516482781328,0 136.60850096083414,68.40145277607542,0 135.10560728320982,72.78535302370906,0 129.7766586674435,75.81859473042996,0 119.05353166801696,77.5793498452458,0 110.21003203651901,79.05304650933026,0 96.0005321232514,78.23362157392815,0 86.03259616290116,76.6548858983459,0 79.20372744561708,73.44111626383089,0 78.92505802320551,72.19100885043055,0
			</coordinates>
		</LineString>
	</Placemark>
</Document>
</kml>
