<?xml version="1.0" encoding="UTF-8"?>
<kml xmlns="http://www.opengis.net/kml/2.2">
<Document>
	<name>super1.kml</name>
	<Placemark>
		<name>super1</name>
		<LineString>
			<tessellate>1</tessellate>
			<coordinates>
				-47.56250950394006,62.15218379166593,0 -45.17214503768082,62.49111148449123,0 -42.61852855974133,62.80002202995381,0 -40.753950199506896,63.669131455616814,0 -38.41445150913113,65.64865513621487,0 -36.26352484872726,67.60113933286935,0 -34.2290921765803,69.03504288693024,0 -30.420215457832505,71.25189849723287,0 -24.826474239693308,73.82689467147296,0 -20.7916664202522,76.49501780235727,0 -18.326474044219463,80.61004143699716,0 -20.08544241366414,83.14347989649642,0 -27.29444315813482,83.76401789473046,0 -35.238959264835216,83.45046286664001,0 -43.55855456032323,83.68498350787937,0 -54.33140111281072,83.68498350787937,0 -62.14711982682954,83.5282147628679,0 -81.75982418370867,82.40166388125839,0 -85.77108622932668,78.35873601186202,0 -86.84539695350888,75.81724412288077,0 -96.55820805298539,75.48152345904215,0 -105.9910757271082,75.25871989608954,0 -119.3868849821017,75.76115634188378,0 -123.40599663988398,75.3143497756936,0 -127.58268928274624,71.25981423773129,0 -137.95403940672705,70.62904863064603,0 -147.2420861135517,71.52412897187102,0 -156.34739652771472,72.32246740253596,0 -161.37346972689602,71.57709878014002,0 -163.15822332567308,70.21130731232944,0 -158.74334156447236,68.9196082612682,0 -152.37376295724206,68.71477407865488,0 -144.24694783835739,68.71477407865488,0 -142.5714113869355,68.40842540381762,0 -141.83819479400566,66.04319820030837,0 -130.8897910363506,62.80920454216558,0 -127.50714185641027,60.51001263432598,0 -126.47188131044115,58.43548709743545,0 -124.64920626888893,55.802474798883885,0 -120.54124912018506,53.285751341305954,0 -117.89246918642525,49.94767484513005,0 -114.84498890791765,48.02895893039944,0 -111.94694145027881,45.769348187425486,0 -110.2963150972919,43.7565684701813,0 -111.99196588207172,41.4338687518554,0 -111.12884360409825,40.036585206884084,0 -109.58330220095708,38.99078323209756,0 -107.6666882960395,39.208524233113465,0 -106.07083342090748,40.036585206884084,0 -104.33165934636779,39.42633590967037,0 -102.22339531631401,37.72916401033761,0 -103.21974376905092,35.55809909606847,0 -104.5049791510302,33.53992530683534,0 -105.30239593470434,32.50009402534505,0 -103.88439084333919,30.72416780774223,0 -101.76212110352417,30.11776023287259,0 -91.70446798201375,35.79454298316489,0 -90.7430473661027,36.01150148000786,0 -90.06413434699002,33.7999398472205,0 -89.18081450741258,33.106622752196465,0 -84.60600930822777,32.93331868653966,0 -83.81571305078249,33.019969606642434,0 -80.2078569198507,39.27168224331636,0 -77.22526726201296,40.5798035663338,0 -74.25101246106158,42.59160662628247,0 -72.52114247775,46.15593417234612,0 -71.36387743230397,46.55401329578163,0 -66.61740294387369,46.768728867972676,0 -64.0886457272932,47.70008887776281,0 -60.278537275725455,47.922258280323696,0 -57.71012754979571,49.348266068551546,0 -54.60890030448781,52.99501340813185,0 -47.56250950394006,62.15218379166593,0
			</coordinates>
		</LineString>
	</Placemark>
</Document>
</kml>
