<?xml version="1.0" encoding="UTF-8"?>
<kml xmlns="http://www.opengis.net/kml/2.2">
<Document>
	<name>super3.kml</name>
	<Placemark>
		<name>super3</name>
		<LineString>
			<tessellate>1</tessellate>
			<coordinates>
				18.559771593889923,-34.01402071227387,0 20.307163802088898,-34.69485290171904,0 22.359792705049493,-34.01402071227387,0 26.046123182782416,-33.571593764828286,0 28.110835009180494,-32.210689355052615,0 31.321413113814117,-29.45546411846912,0 32.53685988976024,-26.7675652519526,0 33.50998185842632,-23.569080936486884,0 33.71827004984005,-20.9832556264475,0 34.39327521643861,-19.42328000752011,0 40.157967164953014,-15.442405875383306,0 39.936871063235806,-11.500675995772713,0 33.8027790043728,-8.61370623767293,0 33.65575699117471,-4.002540622911192,0 34.00759507586691,-1.3413017103430467,0 33.27237415348188,1.423180254090359,0 32.33422423582044,5.1233331960984705,0 30.205149712814574,7.505040807960961,0 26.58670740661602,9.078668265078331,0 22.050708228498674,10.099400887013653,0 20.323289537511577,9.929277103033137,0 18.090176751774607,8.780955057730901,0 14.832220828689321,6.994674943967429,0 9.895445810788424,2.5289731160327875,0 7.153431789854051,-0.5757528535018984,0 9.366083443411023,-3.212643532950445,0 11.668520879303196,-5.594351068691441,0 12.421701565829522,-7.848467115507693,0 12.767983825448281,-9.804868248809798,0 15.685860519058574,-10.06005284013865,0 17.29942199476085,-10.868131950973035,0 17.8614915552916,-12.441759796057656,0 16.234120581389508,-13.462492610967635,0 14.970211905372892,-14.185512820128588,0 12.382643462373162,-14.823472875576059,0 11.227060608771493,-14.823472875576059,0 11.221807479367701,-17.015932922974205,0 11.584208924347353,-18.674629962119866,0 12.748305311719225,-20.67352450138834,0 14.037987823041462,-22.289650901644826,0 15.145061861331653,-24.416193528654354,0 15.959760697118757,-26.074995056118922,0 17.371995493563116,-28.414287465616304,0 17.6318438647786,-30.10889972038727,0 17.633854646341632,-32.27733222211606,0 18.559771593889923,-34.01402071227387,0
			</coordinates>
		</LineString>
	</Placemark>
</Document>
</kml>
