<?xml version="1.0" encoding="UTF-8"?>
<kml xmlns="http://www.opengis.net/kml/2.2">
<Document>
	<name>super4.kml</name>
	<Placemark>
		<name>super4</name>
		<LineString>
			<tessellate>1</tessellate>
			<coordinates>
				44.99550457060712,44.97751413507908,0 49.90675303566222,38.72173981722799,0 52.28061027515549,37.209994372729,0 55.49303224890707,36.79052762647509,0 58.536180507278424,40.152382523971426,0 58.60694943936257,41.50201599934754,0 55.024515112858786,43.957465211806955,0 54.91497066937067,44.97751413507908,0 66.6160148099577,49.25995753306945,0 68.23338615567938,50.55730014947015,0 69.17081319842991,52.56055502655022,0 65.27390073685596,56.806614597325456,0 60.854905591285004,61.90353144375594,0 62.06064751795384,64.33698089198082,0 67.2814290512517,67.60073511778197,0 70.62781502092858,72.72943054117964,0 74.41780243678706,77.90990648073873,0 68.60951066548084,77.68270843975634,0 52.90729944029356,75.69497964143481,0 40.04491333166618,73.66998679705976,0 27.557740247309322,71.80018287191294,0 18.469451968873965,67.50321260801508,0 13.932093502095748,63.771043443883734,0 13.278839458130772,60.42880841039972,0 15.536870343951055,56.00288017230792,0 18.511362124631397,52.91083685567217,0 22.92637680026752,49.77809001189772,0 27.760935909810946,46.769184986942484,0 30.590323535994646,45.14778743637614,0 34.38623884242591,44.6372152143918,0 41.0568260315256,44.80732857768695,0 44.99550457060712,44.97751413507908,0
			</coordinates>
		</LineString>
	</Placemark>
</Document>
</kml>
