<?xml version="1.0" encoding="UTF-8"?>
<kml xmlns="http://www.opengis.net/kml/2.2">
<Document>
	<name>super2.kml</name>
	<Placemark>
		<name>super2</name>
		<LineString>
			<tessellate>1</tessellate>
			<coordinates>
				-62.10111091132112,-38.55541514373251,0 -59.61544630766077,-38.640849426017056,0 -56.5750713029374,-36.76336475392909,0 -52.961853571958876,-33.18742092738336,0 -50.083969077147245,-30.296012736639227,0 -49.09051924506086,-28.510006229608578,0 -48.66089353708553,-25.44764521879489,0 -44.396391137494966,-22.980793602524614,0 -41.963539719210225,-22.8957328694998,0 -39.888005828102735,-18.940473221176607,0 -39.18126163232228,-13.132908825274084,0 -37.40716035456421,-10.921323068483748,0 -35.412763504551926,-8.752267676593943,0 -35.589954586480715,-5.605011718292894,0 -40.04745203090174,-3.010651685600787,0 -44.25390498651873,-2.647015926205824,0 -46.77024166649539,-0.8182046816888737,0 -49.30416814330694,-0.8182046816888737,0 -49.98771046200898,3.222192214585488,0 -53.2905605614146,6.156796189076786,0 -56.49260791313467,6.411979160148901,0 -59.0347540827223,8.666094780977499,0 -61.889490220827746,10.792619679223794,0 -67.10471316640695,10.750089205019618,0 -69.44628833624644,6.709692619227041,0 -70.39827392663197,3.3923142174681735,0 -70.48147589390618,-1.456162067079911,0 -69.78202333712153,-3.284973409496976,0 -68.38351482939662,-6.766094229491762,0 -67.02196792605,-9.275392284825028,0 -65.29063304030166,-11.954813655214483,0 -63.398597499200044,-13.698565347994608,0 -59.95000612660623,-14.421585940414737,0 -56.81233784668395,-14.931954224096124,0 -53.4392378578562,-16.16534327410133,0 -52.89441477247886,-16.590652251934227,0 -53.01987234047781,-18.07922999792098,0 -56.29233848953287,-21.930302044933562,0 -58.13240524679714,-25.843211782774965,0 -59.4074024475547,-28.86299059961554,0 -59.97907032613392,-30.989050365849483,0 -61.68766797821045,-35.44272316225319,0 -62.10111091132112,-38.55541514373251,0
			</coordinates>
		</LineString>
	</Placemark>
</Document>
</kml>
