<?xml version="1.0" encoding="UTF-8"?>
<kml xmlns="http://www.opengis.net/kml/2.2">
<Document>
	<name>super5.kml</name>
	<Placemark>
		<name>super5</name>
		<LineString>
			<tessellate>1</tessellate>
			<coordinates>
				116.01070276269385,-32.09764578274683,0 119.100691295839,-33.854336746472754,0 122.84877583325662,-33.940055699447555,0 124.45892289763066,-33.340084875944875,0 128.02885511742625,-31.969136380648003,0 128.65303986589092,-31.455118312464855,0 133.10764737264392,-31.754958939800524,0 134.59023492155697,-32.61171254511808,0 136.09747826274037,-34.84031615184635,0 138.9327727038919,-36.59947777031895,0 139.89174242669228,-36.814182225144826,0 145.07816794514687,-33.12584134746449,0 145.95556283750273,-27.470967125123053,0 143.2547445057808,-19.636226248784542,0 143.05344905438042,-15.486475874840599,0 142.027954515587,-11.373159229926422,0 141.17233334435042,-8.245328100508026,0 143.04070043873904,-5.674508017593651,0 140.02146073863995,-3.917781024657349,0 137.31986679434476,-3.8320869914412703,0 133.69126460924338,-7.474082236184998,0 130.1715223527912,-10.43052552440069,0 125.28896978785392,-13.601204589844782,0 123.19002307960737,-16.08633967127096,0 120.76959056991566,-18.957105026449945,0 116.2601855451962,-20.285331823856186,0 114.0862327283168,-25.38415742541541,0 116.01070276269385,-32.09764578274683,0
			</coordinates>
		</LineString>
	</Placemark>
</Document>
</kml>
